OBJECT_NAME,OBJECT_ID,EPOCH,MEAN_MOTION,ECCENTRICITY,INCLINATION,RA_OF_ASC_NODE,ARG_OF_PERICENTER,MEAN_ANOMALY,EPHEMERIS_TYPE,CLASSIFICATION_TYPE,NORAD_CAT_ID,ELEMENT_SET_NO,REV_AT_EPOCH,BSTAR,MEAN_MOTION_DOT,MEAN_MOTION_DDOT
SAUDISAT 2,2004-025F,2026-07-19T10:48:12.933216,14.56699531,.00243375,98.5523,201.2681,194.8633,165.1852,0,U,28371,999,17044,.30418063E-4,.87E-6,0
COSMOS 2407,2004-028A,2026-07-19T13:19:26.851296,13.76336768,.00396405,82.9584,50.8565,159.9536,228.0064,0,U,28380,999,10433,.10006225E-4,.25E-6,0
COSMOS 2414,2005-002A,2026-07-19T11:21:12.725280,13.87928650,.00389277,82.9492,19.2180,236.1737,123.5718,0,U,28521,999,8829,.2076745E-4,.4E-6,0
INMARSAT 4-F1,2005-009A,2026-07-19T08:32:59.617248,1.00272223,.00026855,5.2118,42.7953,73.6174,127.0737,0,U,28628,999,7799,0,.25E-6,0
SJ-7,2005-024A,2026-07-19T01:08:05.882784,15.21966307,.00136075,97.7274,231.0160,281.7687,78.2022,0,U,28737,999,15287,.17865836E-3,.4009E-4,0
CUBESAT XI-V,2005-043F,2026-07-19T09:42:23.487264,14.72708170,.00153474,98.3022,356.7103,102.9295,257.3627,0,U,28895,999,10649,.10669037E-3,.628E-5,0
HINODE (SOLAR-B),2006-041A,2026-07-19T11:30:25.142688,14.68661071,.00173874,98.0548,216.1562,180.6910,179.4274,0,U,29479,999,5961,.52139192E-4,.255E-5,0
SHIJIAN-6 02B (SJ-6 02B),2006-046B,2026-07-19T14:27:51.407712,15.01442374,.00128562,97.7137,229.4604,320.5615,39.4672,0,U,29506,999,7560,.483548E-4,.564E-5,0
DMSP 5D-3 F17 (USA 191),2006-050A,2026-07-19T15:01:37.562016,14.14996251,.00094654,98.7389,206.5339,329.6431,30.4193,0,U,29522,999,1701,.6335083E-5,-.31E-6,0
LAPAN-TUBSAT,2007-001A,2026-07-19T13:49:48.934848,14.85981590,.00136872,98.1357,200.5332,81.0740,279.2024,0,U,29709,999,5596,.86431606E-4,.698E-5,0
HAIYANG-1B,2007-010A,2026-07-19T10:44:54.230496,14.31033962,.00147724,98.3518,181.0452,104.1828,256.0998,0,U,31113,999,525,.27693156E-4,.31E-6,0
COSMO-SKYMED 2,2007-059A,2026-07-19T15:12:24.799104,14.82152387,.00014489,97.8896,23.7624,94.0823,266.0556,0,U,32376,999,681,.26218038E-4,.156E-5,0
CARTOSAT-2A,2008-021A,2026-07-19T13:58:55.768224,14.79281311,.00121373,97.7610,248.1830,13.8086,346.3455,0,U,32783,999,98359,.97459595E-4,.675E-5,0
CUTE-1.7+APD II (CO-65),2008-021C,2026-07-19T14:17:25.415520,15.09721824,.00068286,97.8299,182.6987,281.1298,78.9163,0,U,32785,999,99008,.12438356E-3,.1938E-4,0
SEEDS II (CO-66),2008-021J,2026-07-19T10:33:17.970048,15.33752550,.00035468,97.7533,199.9049,147.5625,212.5835,0,U,32791,999,99223,.29357782E-3,.95E-4,0
YUBILEINY (RS30),2008-025A,2026-07-19T14:40:42.960576,12.43180323,.00187257,82.5070,335.2697,238.7793,121.1452,0,U,32953,999,82372,-.4922148E-3,-.59E-6,0
FENGYUN 3A,2008-026A,2026-07-19T11:16:20.282016,14.19577008,.00095118,98.6886,140.7001,40.7784,319.4102,0,U,32958,999,93998,.28711125E-4,.17E-6,0
HUANJING 1A (HJ-1A),2008-041A,2026-07-19T14:21:19.393632,14.84056387,.00201003,97.6705,185.1876,36.1856,324.0714,0,U,33320,999,96321,.11779695E-3,.933E-5,0
HUANJING 1B (HJ-1B),2008-041B,2026-07-19T15:35:23.189280,14.83368367,.00379564,97.6539,188.3098,77.2571,283.2882,0,U,33321,999,96322,.3641501E-4,.25E-5,0
SHIJIAN-6 03A (SJ-6 03A),2008-053A,2026-07-19T13:27:41.333184,15.17442374,.00095624,97.8396,235.0106,258.6325,101.3833,0,U,33408,999,96787,.17121293E-3,.3356E-4,0
SHIJIAN-6 03B (SJ-6 03B),2008-053B,2026-07-19T15:01:05.844576,15.04379119,.00178074,97.8559,221.0557,294.2452,65.6912,0,U,33409,999,96762,-.3737982E-5,-.118E-5,0
