SAUDISAT 2              
1 28371U 04025F   26200.45014969  .00000087  00000+0  30418-4 0  9994
2 28371  98.5523 201.2681 0024337 194.8633 165.1852 14.56699531170441
COSMOS 2407             
1 28380U 04028A   26200.55517189  .00000025  00000+0  10006-4 0  9993
2 28380  82.9584  50.8565 0039640 159.9536 228.0064 13.76336768104331
COSMOS 2414             
1 28521U 05002A   26200.47306395  .00000040  00000+0  20767-4 0  9991
2 28521  82.9492  19.2180 0038927 236.1737 123.5718 13.87928650 88296
INMARSAT 4-F1           
1 28628U 05009A   26200.35624557  .00000025  00000+0  00000+0 0  9992
2 28628   5.2118  42.7953 0002685  73.6174 127.0737  1.00272223 77992
SJ-7                    
1 28737U 05024A   26200.04729031  .00004009  00000+0  17866-3 0  9997
2 28737  97.7274 231.0160 0013607 281.7687  78.2022 15.21966307152878
CUBESAT XI-V            
1 28895U 05043F   26200.40443851  .00000628  00000+0  10669-3 0  9993
2 28895  98.3022 356.7103 0015347 102.9295 257.3627 14.72708170106490
HINODE (SOLAR-B)        
1 29479U 06041A   26200.47945767  .00000255  00000+0  52139-4 0  9996
2 29479  98.0548 216.1562 0017387 180.6910 179.4274 14.68661071 59616
SHIJIAN-6 02B (SJ-6 02B)
1 29506U 06046B   26200.60267833  .00000564  00000+0  48355-4 0  9996
2 29506  97.7137 229.4604 0012856 320.5615  39.4672 15.01442374 75609
DMSP 5D-3 F17 (USA 191) 
1 29522U 06050A   26200.62612919 -.00000031  00000+0  63351-5 0  9994
2 29522  98.7389 206.5339 0009465 329.6431  30.4193 14.14996251 17017
LAPAN-TUBSAT            
1 29709U 07001A   26200.57626082  .00000698  00000+0  86432-4 0  9990
2 29709  98.1357 200.5332 0013687  81.0740 279.2024 14.85981590 55963
HAIYANG-1B              
1 31113U 07010A   26200.44784989  .00000031  00000+0  27693-4 0  9994
2 31113  98.3518 181.0452 0014772 104.1828 256.0998 14.31033962  5254
COSMO-SKYMED 2          
1 32376U 07059A   26200.63362036  .00000156  00000+0  26218-4 0  9995
2 32376  97.8896  23.7624 0001448  94.0823 266.0556 14.82152387  6813
CARTOSAT-2A             
1 32783U 08021A   26200.58258991  .00000675  00000+0  97460-4 0  9998
2 32783  97.7610 248.1830 0012137  13.8086 346.3455 14.79281311983592
CUTE-1.7+APD II (CO-65) 
1 32785U 08021C   26200.59543305  .00001938  00000+0  12438-3 0  9991
2 32785  97.8299 182.6987 0006828 281.1298  78.9163 15.09721824990086
SEEDS II (CO-66)        
1 32791U 08021J   26200.43979132  .00009500  00000+0  29358-3 0  9994
2 32791  97.7533 199.9049 0003546 147.5625 212.5835 15.33752550992234
YUBILEINY (RS30)        
1 32953U 08025A   26200.61160834 -.00000059  00000+0 -49221-3 0  9992
2 32953  82.5070 335.2697 0018725 238.7793 121.1452 12.43180323823728
FENGYUN 3A              
1 32958U 08026A   26200.46967919  .00000017  00000+0  28711-4 0  9994
2 32958  98.6886 140.7001 0009511  40.7784 319.4102 14.19577008939983
HUANJING 1A (HJ-1A)     
1 33320U 08041A   26200.59814113  .00000933  00000+0  11780-3 0  9990
2 33320  97.6705 185.1876 0020100  36.1856 324.0714 14.84056387963213
HUANJING 1B (HJ-1B)     
1 33321U 08041B   26200.64957395  .00000250  00000+0  36415-4 0  9992
2 33321  97.6539 188.3098 0037956  77.2571 283.2882 14.83368367963223
SHIJIAN-6 03A (SJ-6 03A)
1 33408U 08053A   26200.56089506  .00003356  00000+0  17121-3 0  9994
2 33408  97.8396 235.0106 0009562 258.6325 101.3833 15.17442374967876
SHIJIAN-6 03B (SJ-6 03B)
1 33409U 08053B   26200.62576209 -.00000118  00000+0 -37380-5 0  9999
2 33409  97.8559 221.0557 0017807 294.2452  65.6912 15.04379119967626
